GPS BIIR-2  (PRN 13)    
1 24876U 97035A   16184.06252952  .00000044  00000-0  00000+0 0  9999
2 24876  55.6486 240.9053 0040037 116.0777 244.4204  2.00562587138804
GPS BIIR-3  (PRN 11)    
1 25933U 99055A   16184.52951525 -.00000065  00000-0  00000+0 0  9995
2 25933  51.3988  92.9859 0163412  88.1240 176.4210  2.00563298122630
GPS BIIR-4  (PRN 20)    
1 26360U 00025A   16184.54176499  .00000042  00000-0  00000+0 0  9994
2 26360  53.0790 169.4738 0043436  79.0685 293.4582  2.00552833118322
GPS BIIR-5  (PRN 28)    
1 26407U 00040A   16184.44631495 -.00000075  00000-0  00000+0 0  9991
2 26407  56.6983 358.7778 0199413 267.4662 317.4441  2.00569340117005
GPS BIIR-6  (PRN 14)    
1 26605U 00071A   16184.28539456  .00000047  00000-0  00000+0 0  9999
2 26605  55.2184 238.7608 0090346 248.1723 138.4603  2.00521680114598
GPS BIIR-7  (PRN 18)    
1 26690U 01004A   16184.38554987  .00000049  00000-0  00000+0 0  9999
2 26690  53.0057 172.4460 0174735 252.8373 316.0905  2.00560278112992
GPS BIIR-8  (PRN 16)    
1 27663U 03005A   16183.45552688 -.00000067  00000-0  00000+0 0  9997
2 27663  56.7719 358.5351 0086314  21.2538 325.3725  2.00551338 98342
GPS BIIR-9  (PRN 21)    
1 27704U 03010A   16184.39435108 -.00000047  00000-0  00000+0 0  9998
2 27704  53.6701 112.7551 0236014 258.2299  14.5379  2.00572761 97161
GPS BIIR-10 (PRN 22)    
1 28129U 03058A   16183.75858508  .00000059  00000-0  00000+0 0  9996
2 28129  52.8862 172.5051 0078708 251.8171 107.3226  2.00549544 91847
GPS BIIR-11 (PRN 19)    
1 28190U 04009A   16183.72047560 -.00000062  00000-0  00000+0 0  9991
2 28190  55.7995  59.8173 0105894  45.2665 286.4970  2.00569661 90022
GPS BIIR-12 (PRN 23)    
1 28361U 04023A   16184.36510700  .00000053  00000-0  00000+0 0  9998
2 28361  54.1916 234.2267 0111943 214.4680 136.3209  2.00565478 88117
GPS BIIR-13 (PRN 02)    
1 28474U 04045A   16183.16458693 -.00000041  00000-0  00000+0 0  9994
2 28474  54.0578 112.1351 0160032 239.8771 326.5397  2.00573182 85465
GPS BIIRM-1 (PRN 17)    
1 28874U 05038A   16183.63841046 -.00000061  00000-0  00000+0 0  9993
2 28874  55.9646  57.0311 0111939 250.0505  47.2319  2.00559295 78877
GPS BIIRM-2 (PRN 31)    
1 29486U 06042A   16184.41144817 -.00000066  00000-0  00000+0 0  9993
2 29486  55.6242 296.2687 0082326 335.8851  77.6473  2.00552041 71606
GPS BIIRM-3 (PRN 12)    
1 29601U 06052A   16183.28313094 -.00000066  00000-0  00000+0 0  9992
2 29601  56.7428 357.4653 0059687  42.5960 317.8847  2.00560380 70498
GPS BIIRM-4 (PRN 15)    
1 32260U 07047A   16183.09801357  .00000056  00000-0  00000+0 0  9993
2 32260  53.3203 230.9359 0080687  26.2984 334.1935  2.00569509 63870
GPS BIIRM-5 (PRN 29)    
1 32384U 07062A   16184.19793772 -.00000060  00000-0  00000+0 0  9996
2 32384  56.0214  57.5678 0009153 339.0284 234.3629  2.00578345 62624
GPS BIIRM-6 (PRN 07)    
1 32711U 08012A   16184.00659599 -.00000066  00000-0  00000+0 0  9990
2 32711  55.3487 295.7401 0098002 208.4947 150.9794  2.00567459 60817
GPS BIIRM-8 (PRN 05)    
1 35752U 09043A   16183.78938266  .00000063  00000-0  00000+0 0  9994
2 35752  54.2282 173.7236 0044666  23.4081 203.3380  2.00578165 50389
GPS BIIF-1  (PRN 25)    
1 36585U 10022A   16184.33322265 -.00000078  00000-0  00000+0 0  9993
2 36585  56.0665 354.4833 0054625  43.5504 325.3198  2.00557008 44646
GPS BIIF-2  (PRN 01)    
1 37753U 11036A   16184.05651507 -.00000042  00000-0  00000+0 0  9991
2 37753  55.2739 114.7503 0055370  25.7241 231.3282  2.00567112 36329
GPS BIIF-3  (PRN 24)    
1 38833U 12053A   16184.18571299 -.00000063  00000-0  00000+0 0  9997
2 38833  54.3785 292.9950 0043468  20.8496 339.3418  2.00570667 27406
GPS BIIF-4  (PRN 27)    
1 39166U 13023A   16184.04677526 -.00000061  00000-0  00000+0 0  9998
2 39166  55.6754  54.1440 0036888  14.7940 345.3741  2.00567215 22925
GPS BIIF-5  (PRN 30)    
1 39533U 14008A   16184.04281363 -.00000070  00000-0  00000+0 0  9990
2 39533  54.5343 298.2389 0022443 181.5160 178.4857  2.00573402 17288
GPS BIIF-6  (PRN 06)    
1 39741U 14026A   16183.82575084 -.00000041  00000-0  00000+0 0  9990
2 39741  55.2637 114.2768 0005935 278.8020  81.1048  2.00558057 15563
GPS BIIF-7  (PRN 09)    
1 40105U 14045A   16183.91328372  .00000055  00000-0  00000+0 0  9997
2 40105  54.7114 233.9634 0003997 161.0615 199.0401  2.00577575 14010
GPS BIIF-8  (PRN 03)    
1 40294U 14068A   16184.28950684  .00000058  00000-0  00000+0 0  9992
2 40294  54.9697 174.4125 0004342 271.6997  88.2497  2.00563476 12249
GPS BIIF-9  (PRN 26)    
1 40534U 15013A   16183.93353480 -.00000077  00000-0  00000+0 0  9994
2 40534  55.0328 353.9497 0009874 357.4617   2.5448  2.00551021  9303
GPS BIIF-10  (PRN 08)   
1 40730U 15033A   16183.58825737 -.00000063  00000-0  00000+0 0  9999
2 40730  55.2116  53.9920 0018996 296.3391  63.5240  2.00559143  7051
GPS BIIF-11  (PRN 10)   
1 41019U 15062A   16184.13972719  .00000060  00000-0  00000+0 0  9993
2 41019  54.9824 174.1896 0016872 211.5468 148.3513  2.00562413  4884
GPS BIIF-12  (PRN 32)   
1 41328U 16007A   16184.22750723  .00000055  00000-0  00000+0 0  9999
2 41328  54.9737 234.0400 0006744 242.8224 117.1943  2.00570136  2959
